{
  "type": "FeatureCollection",
  "features": [
    {
      "type": "Feature",
      "properties": {},
      "geometry": {
        "coordinates": [
          [
            [
              -91.14492675064741,
              42.99676578457067
            ],
            [
              -91.04800219581334,
              42.99512972942844
            ],
            [
              -90.70450110607496,
              43.124540782433286
            ],
            [
              -90.5684661066217,
              43.18271690891876
            ],
            [
              -90.43782157968019,
              43.1778419604172
            ],
            [
              -90.28189264256098,
              43.202561473642845
            ],
            [
              -90.2624867854097,
              43.325548466932275
            ],
            [
              -89.96359344238593,
              43.531414623658264
            ],
            [
              -90.09363708111145,
              43.58967621972508
            ],
            [
              -90.3247885389266,
              43.66135807694232
            ],
            [
              -90.58802872485293,
              43.73740519454407
            ],
            [
              -90.83291805476738,
              43.671184403071265
            ],
            [
              -91.03050587513094,
              43.709746474401044
            ],
            [
              -91.2379669198608,
              43.58472625668753
            ],
            [
              -91.2321633362539,
              43.519486394307734
            ],
            [
              -91.20938342432237,
              43.41006777563382
            ],
            [
              -91.06931293179233,
              43.307780063661795
            ],
            [
              -91.06859264452262,
              43.260614004999184
            ],
            [
              -91.16635613233869,
              43.14251570923287
            ],
            [
              -91.14492675064741,
              42.99676578457067
            ]
          ]
        ],
        "type": "Polygon"
      }
    }
  ]
}